[{"OBJECT_NAME":"STARLINK-34572","OBJECT_ID":"2025-142AA","EPOCH":"2026-03-09T23:26:58.405632","MEAN_MOTION":14.98349579,"ECCENTRICITY":0.00030239,"INCLINATION":70.0008,"RA_OF_ASC_NODE":313.7389,"ARG_OF_PERICENTER":270.4355,"MEAN_ANOMALY":89.6458,"EPHEMERIS_TYPE":0,"CLASSIFICATION_TYPE":"U","NORAD_CAT_ID":64720,"ELEMENT_SET_NO":999,"REV_AT_EPOCH":3969,"BSTAR":0.0003472454,"MEAN_MOTION_DOT":4.055e-5,"MEAN_MOTION_DDOT":0},{"OBJECT_NAME":"CZ-2C R\/B","OBJECT_ID":"2023-187D","EPOCH":"2026-03-09T21:18:27.461376","MEAN_MOTION":14.91546811,"ECCENTRICITY":0.00358476,"INCLINATION":98.1132,"RA_OF_ASC_NODE":178.247,"ARG_OF_PERICENTER":167.8673,"MEAN_ANOMALY":192.3416,"EPHEMERIS_TYPE":0,"CLASSIFICATION_TYPE":"U","NORAD_CAT_ID":58499,"ELEMENT_SET_NO":999,"REV_AT_EPOCH":12301,"BSTAR":0.00023879444,"MEAN_MOTION_DOT":2.36e-5,"MEAN_MOTION_DDOT":0}]
